MALLIGYONG-1            
1 58400U 23179A   24158.19566690  .00000871  00000+0  41535-4 0  9998
2 58400  97.4052  45.2326 0002221 305.1745  54.9283 15.21704003 30052
